{"type": "FeatureCollection", "features": [ {"type": "Feature", "properties": {"norad_id": 42741, "name": "EUTELSAT 172B", "group": "eutelsat", "lat": 0.020533775912616944, "lon": 120.94104817432142, "alt_km": 35785.1608901533, "timestamp": "2025-12-20T14:38:01.630118+00:00", "meta": {"OBJECT_NAME": "EUTELSAT 172B", "OBJECT_ID": "2017-029B", "EPOCH": "2025-12-20T03:46:32.942208", "MEAN_MOTION": 1.00272204, "ECCENTRICITY": 2.319e-05, "INCLINATION": 0.0401, "RA_OF_ASC_NODE": 131.6272, "ARG_OF_PERICENTER": 312.3551, "MEAN_ANOMALY": 233.6503, "EPHEMERIS_TYPE": 0, "CLASSIFICATION_TYPE": "U", "NORAD_CAT_ID": 42741, "ELEMENT_SET_NO": 999, "REV_AT_EPOCH": 3193, "BSTAR": 0, "MEAN_MOTION_DOT": 1.9e-07, "MEAN_MOTION_DDOT": 0}, "tle": {"line1": "1 42741U 17029B   25354.15732572  .00000019  00000+0  00000+0 0  9996", "line2": "2 42741   0.0401 131.6272 0000231 312.3551 233.6503  1.00272204 31939"}}, "geometry": {"type": "Point", "coordinates": [120.94104817432142, 0.020533775912616944]}}, {"type": "Feature", "properties": {"norad_id": 44334, "name": "EUTELSAT 7C", "group": "eutelsat", "lat": 0.03345986304620467, "lon": -44.04566126646183, "alt_km": 35780.469291811336, "timestamp": "2025-12-20T14:38:01.630130+00:00", "meta": {"OBJECT_NAME": "EUTELSAT 7C", "OBJECT_ID": "2019-034B", "EPOCH": "2025-12-20T04:42:12.609792", "MEAN_MOTION": 1.00270738, "ECCENTRICITY": 0.00030505, "INCLINATION": 0.073, "RA_OF_ASC_NODE": 179.279, "ARG_OF_PERICENTER": 73.5295, "MEAN_ANOMALY": 273.7633, "EPHEMERIS_TYPE": 0, "CLASSIFICATION_TYPE": "U", "NORAD_CAT_ID": 44334, "ELEMENT_SET_NO": 999, "REV_AT_EPOCH": 504, "BSTAR": 0, "MEAN_MOTION_DOT": 7.2e-07, "MEAN_MOTION_DDOT": 0}, "tle": {"line1": "1 44334U 19034B   25354.19597928  .00000072  00000+0  00000+0 0  9991", "line2": "2 44334   0.0730 179.2790 0003050  73.5295 273.7633  1.00270738  5042"}}, "geometry": {"type": "Point", "coordinates": [-44.04566126646183, 0.03345986304620467]}}, {"type": "Feature", "properties": {"norad_id": 44624, "name": "EUTELSAT 5 WEST B", "group": "eutelsat", "lat": -0.05379322419183257, "lon": -56.03650563222578, "alt_km": 35775.78410600193, "timestamp": "2025-12-20T14:38:01.630142+00:00", "meta": {"OBJECT_NAME": "EUTELSAT 5 WEST B", "OBJECT_ID": "2019-067A", "EPOCH": "2025-12-20T04:38:50.432928", "MEAN_MOTION": 1.00271303, "ECCENTRICITY": 0.00029972, "INCLINATION": 0.0677, "RA_OF_ASC_NODE": 334.3737, "ARG_OF_PERICENTER": 294.7797, "MEAN_ANOMALY": 244.594, "EPHEMERIS_TYPE": 0, "CLASSIFICATION_TYPE": "U", "NORAD_CAT_ID": 44624, "ELEMENT_SET_NO": 999, "REV_AT_EPOCH": 2264, "BSTAR": 0, "MEAN_MOTION_DOT": -1.8e-07, "MEAN_MOTION_DDOT": 0}, "tle": {"line1": "1 44624U 19067A   25354.19363927 -.00000018  00000+0  00000+0 0  9990", "line2": "2 44624   0.0677 334.3737 0002997 294.7797 244.5940  1.00271303 22643"}}, "geometry": {"type": "Point", "coordinates": [-56.03650563222578, -0.05379322419183257]}}, {"type": "Feature", "properties": {"norad_id": 45027, "name": "EUTELSAT KONNECT", "group": "eutelsat", "lat": -0.06192597005637934, "lon": -43.85385977756067, "alt_km": 35781.85187871497, "timestamp": "2025-12-20T14:38:01.630153+00:00", "meta": {"OBJECT_NAME": "EUTELSAT KONNECT", "OBJECT_ID": "2020-005B", "EPOCH": "2025-12-20T04:42:20.098080", "MEAN_MOTION": 1.00269776, "ECCENTRICITY": 0.00012968, "INCLINATION": 0.0717, "RA_OF_ASC_NODE": 94.868, "ARG_OF_PERICENTER": 191.8715, "MEAN_ANOMALY": 240.0807, "EPHEMERIS_TYPE": 0, "CLASSIFICATION_TYPE": "U", "NORAD_CAT_ID": 45027, "ELEMENT_SET_NO": 999, "REV_AT_EPOCH": 2254, "BSTAR": 0, "MEAN_MOTION_DOT": 7.3e-07, "MEAN_MOTION_DDOT": 0}, "tle": {"line1": "1 45027U 20005B   25354.19606595  .00000073  00000+0  00000+0 0  9993", "line2": "2 45027   0.0717  94.8680 0001296 191.8715 240.0807  1.00269776 22542"}}, "geometry": {"type": "Point", "coordinates": [-43.85385977756067, -0.06192597005637934]}}, {"type": "Feature", "properties": {"norad_id": 49056, "name": "EUTELSAT QUANTUM", "group": "eutelsat", "lat": -0.01532493231988234, "lon": -3.3188061756186795, "alt_km": 35782.95793280221, "timestamp": "2025-12-20T14:38:01.630165+00:00", "meta": {"OBJECT_NAME": "EUTELSAT QUANTUM", "OBJECT_ID": "2021-069B", "EPOCH": "2025-12-20T04:36:38.793888", "MEAN_MOTION": 1.00271951, "ECCENTRICITY": 0.00033302, "INCLINATION": 0.0188, "RA_OF_ASC_NODE": 32.2661, "ARG_OF_PERICENTER": 246.9131, "MEAN_ANOMALY": 286.7168, "EPHEMERIS_TYPE": 0, "CLASSIFICATION_TYPE": "U", "NORAD_CAT_ID": 49056, "ELEMENT_SET_NO": 999, "REV_AT_EPOCH": 1613, "BSTAR": 0, "MEAN_MOTION_DOT": 1.5e-06, "MEAN_MOTION_DDOT": 0}, "tle": {"line1": "1 49056U 21069B   25354.19211567  .00000150  00000+0  00000+0 0  9997", "line2": "2 49056   0.0188  32.2661 0003330 246.9131 286.7168  1.00271951 16133"}}, "geometry": {"type": "Point", "coordinates": [-3.3188061756186795, -0.01532493231988234]}}, {"type": "Feature", "properties": {"norad_id": 53765, "name": "EUTELSAT KONNECT VHTS", "group": "eutelsat", "lat": -0.051354989996064304, "lon": -48.26779337818758, "alt_km": 35782.02844457008, "timestamp": "2025-12-20T14:38:01.630177+00:00", "meta": {"OBJECT_NAME": "EUTELSAT KONNECT VHTS", "OBJECT_ID": "2022-110A", "EPOCH": "2025-12-20T03:48:38.814048", "MEAN_MOTION": 1.00276689, "ECCENTRICITY": 0.00023926, "INCLINATION": 0.0642, "RA_OF_ASC_NODE": 98.8087, "ARG_OF_PERICENTER": 137.8855, "MEAN_ANOMALY": 272.2232, "EPHEMERIS_TYPE": 0, "CLASSIFICATION_TYPE": "U", "NORAD_CAT_ID": 53765, "ELEMENT_SET_NO": 999, "REV_AT_EPOCH": 503, "BSTAR": 0, "MEAN_MOTION_DOT": 4.2e-07, "MEAN_MOTION_DDOT": 0}, "tle": {"line1": "1 53765U 22110A   25354.15878257  .00000042  00000+0  00000+0 0  9998", "line2": "2 53765   0.0642  98.8087 0002392 137.8855 272.2232  1.00276689  5030"}}, "geometry": {"type": "Point", "coordinates": [-48.26779337818758, -0.051354989996064304]}}, {"type": "Feature", "properties": {"norad_id": 54048, "name": "EUTELSAT HOTBIRD 13F", "group": "eutelsat", "lat": 0.008781355369502338, "lon": -38.0854865273345, "alt_km": 35778.57403388321, "timestamp": "2025-12-20T14:38:01.630188+00:00", "meta": {"OBJECT_NAME": "EUTELSAT HOTBIRD 13F", "OBJECT_ID": "2022-134A", "EPOCH": "2025-12-20T04:43:57.443232", "MEAN_MOTION": 1.00272198, "ECCENTRICITY": 0.00023829, "INCLINATION": 0.0482, "RA_OF_ASC_NODE": 295.6006, "ARG_OF_PERICENTER": 68.8406, "MEAN_ANOMALY": 168.5765, "EPHEMERIS_TYPE": 0, "CLASSIFICATION_TYPE": "U", "NORAD_CAT_ID": 54048, "ELEMENT_SET_NO": 999, "REV_AT_EPOCH": 1158, "BSTAR": 0, "MEAN_MOTION_DOT": 1.11e-06, "MEAN_MOTION_DDOT": 0}, "tle": {"line1": "1 54048U 22134A   25354.19719263  .00000111  00000+0  00000+0 0  9991", "line2": "2 54048   0.0482 295.6006 0002382  68.8406 168.5765  1.00272198 11585"}}, "geometry": {"type": "Point", "coordinates": [-38.0854865273345, 0.008781355369502338]}}, {"type": "Feature", "properties": {"norad_id": 54225, "name": "EUTELSAT HOTBIRD 13G", "group": "eutelsat", "lat": 0.020321815595657676, "lon": -38.05775118073737, "alt_km": 35792.17892784257, "timestamp": "2025-12-20T14:38:01.630200+00:00", "meta": {"OBJECT_NAME": "EUTELSAT HOTBIRD 13G", "OBJECT_ID": "2022-146A", "EPOCH": "2025-12-19T18:27:37.056960", "MEAN_MOTION": 1.0027241, "ECCENTRICITY": 0.00017892, "INCLINATION": 0.0515, "RA_OF_ASC_NODE": 225.8744, "ARG_OF_PERICENTER": 308.1908, "MEAN_ANOMALY": 204.4423, "EPHEMERIS_TYPE": 0, "CLASSIFICATION_TYPE": "U", "NORAD_CAT_ID": 54225, "ELEMENT_SET_NO": 999, "REV_AT_EPOCH": 566, "BSTAR": 0, "MEAN_MOTION_DOT": 1.12e-06, "MEAN_MOTION_DDOT": 0}, "tle": {"line1": "1 54225U 22146A   25353.76917890  .00000112  00000+0  00000+0 0  9990", "line2": "2 54225   0.0515 225.8744 0001789 308.1908 204.4423  1.00272410  5660"}}, "geometry": {"type": "Point", "coordinates": [-38.05775118073737, 0.020321815595657676]}}, {"type": "Feature", "properties": {"norad_id": 54259, "name": "EUTELSAT 10B", "group": "eutelsat", "lat": -0.052925965928572655, "lon": -41.05749806066977, "alt_km": 35787.79450659318, "timestamp": "2025-12-20T14:38:01.630212+00:00", "meta": {"OBJECT_NAME": "EUTELSAT 10B", "OBJECT_ID": "2022-157A", "EPOCH": "2025-12-20T03:00:22.363776", "MEAN_MOTION": 1.00274144, "ECCENTRICITY": 6.752e-05, "INCLINATION": 0.0606, "RA_OF_ASC_NODE": 97.5404, "ARG_OF_PERICENTER": 8.9249, "MEAN_ANOMALY": 37.5953, "EPHEMERIS_TYPE": 0, "CLASSIFICATION_TYPE": "U", "NORAD_CAT_ID": 54259, "ELEMENT_SET_NO": 999, "REV_AT_EPOCH": 1123, "BSTAR": 0, "MEAN_MOTION_DOT": 9.3e-07, "MEAN_MOTION_DDOT": 0}, "tle": {"line1": "1 54259U 22157A   25354.12525884  .00000093  00000+0  00000+0 0  9996", "line2": "2 54259   0.0606  97.5404 0000675   8.9249  37.5953  1.00274144 11230"}}, "geometry": {"type": "Point", "coordinates": [-41.05749806066977, -0.052925965928572655]}}, {"type": "Feature", "properties": {"norad_id": 59346, "name": "EUTELSAT 36D", "group": "eutelsat", "lat": -0.023847662497742072, "lon": -15.220323320830117, "alt_km": 35783.425811970614, "timestamp": "2025-12-20T14:38:01.630223+00:00", "meta": {"OBJECT_NAME": "EUTELSAT 36D", "OBJECT_ID": "2024-059A", "EPOCH": "2025-12-19T22:17:14.700768", "MEAN_MOTION": 1.0027216, "ECCENTRICITY": 6.505e-05, "INCLINATION": 0.0247, "RA_OF_ASC_NODE": 22.0433, "ARG_OF_PERICENTER": 347.9809, "MEAN_ANOMALY": 88.8998, "EPHEMERIS_TYPE": 0, "CLASSIFICATION_TYPE": "U", "NORAD_CAT_ID": 59346, "ELEMENT_SET_NO": 999, "REV_AT_EPOCH": 635, "BSTAR": 0, "MEAN_MOTION_DOT": 0, "MEAN_MOTION_DDOT": 0}, "tle": {"line1": "1 59346U 24059A   25353.92864237  .00000000  00000+0  00000+0 0  9994", "line2": "2 59346   0.0247  22.0433 0000650 347.9809  88.8998  1.00272160  6350"}}, "geometry": {"type": "Point", "coordinates": [-15.220323320830117, -0.023847662497742072]}}]}